{"spkid": "54142826", "covariance": {"epoch": "2459638.5", "elements": [{"name": "e", "sigma": 1.48176774463562e-07, "value": ".6756311216523871", "title": "eccentricity", "units": null, "label": "e"}, {"value": ".3638352140616021", "title": "perihelion distance", "units": "au", "name": "q", "sigma": 1.71573790198671e-07, "label": "q"}, {"name": "tp", "sigma": 3.4616155030351e-05, "value": "2459827.079554840098", "title": "time of perihelion passage", "units": "TDB", "label": "tp"}, {"label": "node", "title": "longitude of the ascending node", "value": "219.5465767112785", "units": "deg", "sigma": 4.95766774336959e-06, "name": "om"}, {"name": "w", "sigma": 1.4350878975821e-05, "units": "deg", "title": "argument of perihelion", "value": "132.1375155777199", "label": "peri"}, {"label": "i", "units": "deg", "title": "inclination", "value": "28.39465324080476", "sigma": 2.07263144903671e-05, "name": "i"}], "data": [["2.195635649042535E-14", "-2.530751914278062E-14", "-2.642744526946578E-12", "1.217110279460671E-13", "1.821456496597661E-12", "-3.212287348127481E-14"], ["-2.530751914278062E-14", "2.94375654831376E-14", "3.526188211032221E-12", "-1.557282897074102E-13", "-2.125692279262648E-12", "-4.241791104809298E-14"], ["-2.642744526946578E-12", "3.526188211032221E-12", "1.198278189085296E-9", "-5.220617486607643E-11", "-2.410989843182703E-10", "-1.185699331693334E-10"], ["1.217110279460671E-13", "-1.557282897074102E-13", "-5.220617486607643E-11", "2.457846945364728E-11", "-1.850669197015193E-11", "2.184992917540472E-11"], ["1.821456496597661E-12", "-2.125692279262648E-12", "-2.410989843182703E-10", "-1.850669197015193E-11", "2.059477273786618E-10", "1.121503318765198E-11"], ["-3.212287348127481E-14", "-4.241791104809298E-14", "-1.185699331693334E-10", "2.184992917540472E-11", "1.121503318765198E-11", "4.295801123536E-10"]], "labels": ["e", "q", "tp", "node", "peri", "i"]}, "elements": [{"units": null, "title": "eccentricity", "value": ".6754982388506654", "name": "e", "sigma": "1.4816E-7", "label": "e"}, {"label": "a", "title": "semi-major axis", "value": "1.121578428299043", "units": "au", "name": "a", "sigma": "5.222E-8"}, {"label": "q", "units": "au", "title": "perihelion distance", "value": ".3639541752501421", "sigma": "1.7153E-7", "name": "q"}, {"label": "i", "sigma": "2.0727E-5", "name": "i", "title": "inclination; angle with respect to x-y ecliptic plane", "value": "28.39722832378441", "units": "deg"}, {"label": "node", "name": "om", "sigma": "4.9556E-6", "value": "219.5335687402199", "title": "longitude of the ascending node", "units": "deg"}, {"label": "peri", "title": "argument of perihelion", "value": "132.1472839833494", "units": "deg", "name": "w", "sigma": "1.4356E-5"}, {"sigma": ".00010749", "name": "ma", "title": "mean anomaly", "value": "59.62903069609279", "units": "deg", "label": "M"}, {"name": "tp", "sigma": ".00012454", "units": "TDB", "title": "time of perihelion passage", "value": "2461128.638190699312", "label": "tp"}, {"sigma": "3.03E-5", "name": "per", "units": "d", "value": "433.853293374813", "title": "sidereal orbital period", "label": "period"}, {"label": "n", "units": "deg/d", "title": "mean motion", "value": ".8297735789894998", "name": "n", "sigma": "5.795E-8"}, {"value": "1.879202681347943", "title": "aphelion distance", "units": "au", "sigma": "8.7494E-8", "name": "ad", "label": "Q"}], "epoch": "2461200.5"}